0 SL-16 DEB
1 22537U 92093GX  13282.53351275  .00000856  00000-0  56250-3 0   473
2 22537 071.1751 098.1453 0119869 295.0382 127.2114 14.01276027 53327
0 SL-16 DEB
1 22537U 92093GX  13283.61752959  .00000931  00000-0  60928-3 0   489
2 22537 071.1752 095.9389 0119927 293.3959 195.6332 14.01278694 53476
0 SL-16 DEB
1 22537U 92093GX  13285.90640803  .00001126  00000-0  73034-3 0   509
2 22537 071.1754 091.2803 0120044 289.9823 222.0742 14.01281338 53795
0 SL-16 DEB
1 22537U 92093GX  13286.90712394  .00001323  00000-0  85353-3 0   512
2 22537 071.1756 089.2435 0120084 288.4796 230.2916 14.01282616 53932
0 SL-16 DEB
1 22537U 92093GX  13288.24524787  .00001730  00000-0  11070-2 0   525
2 22537 071.1758 086.5197 0120153 286.4691 140.6076 14.01286874 54121
0 SL-16 DEB
1 22537U 92093GX  13289.45154017  .00001370  00000-0  88263-3 0   534
2 22537 071.1760 084.0646 0120238 284.6625 105.8898 14.01292017 54296
0 SL-16 DEB
1 22537U 92093GX  13290.61382719  .00001478  00000-0  94980-3 0   549
2 22537 071.1762 081.6990 0120310 282.9255 209.1975 14.01295411 54457
0 SL-16 DEB
1 22537U 92093GX  13292.16848867  .00001414  00000-0  90930-3 0   554
2 22537 071.1764 078.5349 0120392 280.6082 131.9065 14.01299195 54674
0 SL-16 DEB
1 22537U 92093GX  13293.45421670  .00001561  00000-0  10011-2 0   561
2 22537 071.1764 075.9182 0120474 278.6859 137.9686 14.01303055 54856
0 SL-16 DEB
1 22537U 92093GX  13294.82942697  .00001735  00000-0  11094-2 0   576
2 22537 071.1764 073.1193 0120581 276.6349 235.4547 14.01306226 55044
0 SL-16 DEB
1 22537U 92093GX  13296.16671584  .00001798  00000-0  11483-2 0   581
2 22537 071.1764 070.3975 0120697 274.6492 141.6450 14.01309812 55232
